start=new Date('2022-04-05T00:00:00.000Z').valueOf();
sats=[{"ELEMENT_SET_NO":"999","CLASSIFICATION_TYPE":"U","MEAN_ANOMALY":"291.1899","INCLINATION":"53.0559","BSTAR":"0.00009942500000","OBJECT_ID":"2021-021BH","EPOCH":"2022-04-04T18:09:47.639232","TLE_LINE2":"2 47915  53.0559 238.2937 0001446  68.9245 291.1899 15.06391127 59365","COUNTRY_CODE":"US","TLE_LINE1":"1 47915U 21021BH  22094.75680138  .00001199  00000-0  99425-4 0  9990","GP_ID":"200429454","ARG_OF_PERICENTER":"68.9245","NORAD_CAT_ID":"47915","FILE":"3387987","TIME_SYSTEM":"UTC","MEAN_MOTION":"15.06391127","LAUNCH_DATE":"2021-03-14","ECCENTRICITY":"0.00014460","RA_OF_ASC_NODE":"238.2937","REV_AT_EPOCH":"5936","MEAN_MOTION_DDOT":"0.0000000000000","SITE":"AFETR","EPHEMERIS_TYPE":"0","PERIOD":"95.593","MEAN_MOTION_DOT":"0.00001199","DECAY_DATE":null,"SEMIMAJOR_AXIS":"6925.376","REF_FRAME":"TEME","PERIAPSIS":"546.239","OBJECT_NAME":"STARLINK-2376","RCS_SIZE":"LARGE","CENTER_NAME":"EARTH","OBJECT_TYPE":"PAYLOAD","MEAN_ELEMENT_THEORY":"SGP4","APOAPSIS":"548.242"},{"TLE_LINE2":"2 47916  53.0552 224.2927 0001653  59.6415 300.4738 15.06390745 60003","GP_ID":"200424322","TLE_LINE1":"1 47916U 21021BJ  22094.53150500  .00003896  00000-0  28038-3 0  9999","COUNTRY_CODE":"US","MEAN_ANOMALY":"300.4738","INCLINATION":"53.0552","ELEMENT_SET_NO":"999","CLASSIFICATION_TYPE":"U","OBJECT_ID":"2021-021BJ","EPOCH":"2022-04-04T12:45:22.032000","BSTAR":"0.00028038000000","TIME_SYSTEM":"UTC","MEAN_MOTION":"15.06390745","ARG_OF_PERICENTER":"59.6415","FILE":"3387897","NORAD_CAT_ID":"47916","DECAY_DATE":null,"SEMIMAJOR_AXIS":"6925.377","PERIOD":"95.593","MEAN_MOTION_DOT":"0.00003896","REF_FRAME":"TEME","RA_OF_ASC_NODE":"224.2927","ECCENTRICITY":"0.00016530","REV_AT_EPOCH":"6000","LAUNCH_DATE":"2021-03-14","SITE":"AFETR","EPHEMERIS_TYPE":"0","MEAN_MOTION_DDOT":"0.0000000000000","MEAN_ELEMENT_THEORY":"SGP4","APOAPSIS":"548.387","OBJECT_NAME":"STARLINK-2378","PERIAPSIS":"546.097","OBJECT_TYPE":"PAYLOAD","RCS_SIZE":"LARGE","CENTER_NAME":"EARTH"},{"NORAD_CAT_ID":"47917","FILE":"3387897","ARG_OF_PERICENTER":"66.3201","MEAN_MOTION":"15.06391216","TIME_SYSTEM":"UTC","BSTAR":"0.00017558000000","OBJECT_ID":"2021-021BK","EPOCH":"2022-04-04T12:54:38.856672","ELEMENT_SET_NO":"999","CLASSIFICATION_TYPE":"U","MEAN_ANOMALY":"293.7938","INCLINATION":"53.0533","TLE_LINE2":"2 47917  53.0533 234.2746 0001434  66.3201 293.7938 15.06391216 59859","COUNTRY_CODE":"US","TLE_LINE1":"1 47917U 21021BK  22094.53794973  .00002334  00000-0  17558-3 0  9999","GP_ID":"200425071","RCS_SIZE":"LARGE","CENTER_NAME":"EARTH","OBJECT_TYPE":"PAYLOAD","PERIAPSIS":"546.247","OBJECT_NAME":"STARLINK-2397","APOAPSIS":"548.234","MEAN_ELEMENT_THEORY":"SGP4","MEAN_MOTION_DDOT":"0.0000000000000","SITE":"AFETR","EPHEMERIS_TYPE":"0","LAUNCH_DATE":"2021-03-14","ECCENTRICITY":"0.00014340","RA_OF_ASC_NODE":"234.2746","REV_AT_EPOCH":"5985","REF_FRAME":"TEME","PERIOD":"95.593","MEAN_MOTION_DOT":"0.00002334","DECAY_DATE":null,"SEMIMAJOR_AXIS":"6925.375"},{"MEAN_MOTION":"15.06414281","TIME_SYSTEM":"UTC","NORAD_CAT_ID":"47918","FILE":"3388028","ARG_OF_PERICENTER":"58.6210","COUNTRY_CODE":"US","TLE_LINE1":"1 47918U 21021BL  22094.74436038  .00011629  00000-0  79797-3 0  9998","GP_ID":"200430370","TLE_LINE2":"2 47918  53.0538 233.3463 0001559  58.6210 301.4931 15.06414281 59435","BSTAR":"0.00079797000000","EPOCH":"2022-04-04T17:51:52.736832","OBJECT_ID":"2021-021BL","CLASSIFICATION_TYPE":"U","ELEMENT_SET_NO":"999","INCLINATION":"53.0538","MEAN_ANOMALY":"301.4931","APOAPSIS":"548.249","MEAN_ELEMENT_THEORY":"SGP4","CENTER_NAME":"EARTH","RCS_SIZE":"LARGE","OBJECT_TYPE":"PAYLOAD","PERIAPSIS":"546.090","OBJECT_NAME":"STARLINK-2398","REF_FRAME":"TEME","MEAN_MOTION_DOT":"0.00011629","PERIOD":"95.591","DECAY_DATE":null,"SEMIMAJOR_AXIS":"6925.305","MEAN_MOTION_DDOT":"0.0000000000000","EPHEMERIS_TYPE":"0","SITE":"AFETR","LAUNCH_DATE":"2021-03-14","REV_AT_EPOCH":"5943","ECCENTRICITY":"0.00015590","RA_OF_ASC_NODE":"233.3463"},{"MEAN_MOTION_DDOT":"0.0000000000000","SITE":"AFETR","EPHEMERIS_TYPE":"0","LAUNCH_DATE":"2021-03-14","REV_AT_EPOCH":"5928","ECCENTRICITY":"0.00019130","RA_OF_ASC_NODE":"243.1003","REF_FRAME":"TEME","MEAN_MOTION_DOT":"0.00001122","PERIOD":"95.593","DECAY_DATE":null,"SEMIMAJOR_AXIS":"6925.370","CENTER_NAME":"EARTH","RCS_SIZE":"LARGE","OBJECT_TYPE":"PAYLOAD","PERIAPSIS":"545.910","OBJECT_NAME":"STARLINK-2405","APOAPSIS":"548.560","MEAN_ELEMENT_THEORY":"SGP4","BSTAR":"0.00009422200000","EPOCH":"2022-04-04T19:04:51.901824","OBJECT_ID":"2021-021BM","ELEMENT_SET_NO":"999","CLASSIFICATION_TYPE":"U","MEAN_ANOMALY":"313.1016","INCLINATION":"53.0558","GP_ID":"200430348","TLE_LINE1":"1 47919U 21021BM  22094.79504516  .00001122  00000-0  94222-4 0  9999","COUNTRY_CODE":"US","TLE_LINE2":"2 47919  53.0558 243.1003 0001913  47.0133 313.1016 15.06392967 59280","NORAD_CAT_ID":"47919","FILE":"3388026","ARG_OF_PERICENTER":"47.0133","MEAN_MOTION":"15.06392967","TIME_SYSTEM":"UTC"},{"REF_FRAME":"TEME","DECAY_DATE":null,"SEMIMAJOR_AXIS":"6925.379","PERIOD":"95.593","MEAN_MOTION_DOT":"-0.00000205","EPHEMERIS_TYPE":"0","SITE":"AFETR","MEAN_MOTION_DDOT":"0.0000000000000","ECCENTRICITY":"0.00015950","RA_OF_ASC_NODE":"290.4500","REV_AT_EPOCH":"5835","LAUNCH_DATE":"2021-03-24","APOAPSIS":"548.349","MEAN_ELEMENT_THEORY":"SGP4","OBJECT_TYPE":"PAYLOAD","RCS_SIZE":"LARGE","CENTER_NAME":"EARTH","OBJECT_NAME":"STARLINK-2087","PERIAPSIS":"546.139","TLE_LINE2":"2 47977  53.0548 290.4500 0001595  65.6076 294.5079 15.06390072 58351","COUNTRY_CODE":"US","TLE_LINE1":"1 47977U 21024A   22094.27302666 -.00000205  00000-0  51238-5 0  9994","GP_ID":"200424329","OBJECT_ID":"2021-024A","EPOCH":"2022-04-04T06:33:09.503424","BSTAR":"0.00000512380000","INCLINATION":"53.0548","MEAN_ANOMALY":"294.5079","ELEMENT_SET_NO":"999","CLASSIFICATION_TYPE":"U","MEAN_MOTION":"15.06390072","TIME_SYSTEM":"UTC","FILE":"3387897","NORAD_CAT_ID":"47977","ARG_OF_PERICENTER":"65.6076"},{"CENTER_NAME":"EARTH","RCS_SIZE":"LARGE","OBJECT_TYPE":"PAYLOAD","PERIAPSIS":"546.091","OBJECT_NAME":"STARLINK-1647","APOAPSIS":"548.368","MEAN_ELEMENT_THEORY":"SGP4","MEAN_MOTION_DDOT":"0.0000000000000","EPHEMERIS_TYPE":"0","SITE":"AFETR","LAUNCH_DATE":"2021-03-24","REV_AT_EPOCH":"5776","RA_OF_ASC_NODE":"297.9716","ECCENTRICITY":"0.00016440","REF_FRAME":"TEME","MEAN_MOTION_DOT":"0.00014411","PERIOD":"95.592","DECAY_DATE":null,"SEMIMAJOR_AXIS":"6925.365","NORAD_CAT_ID":"47978","FILE":"3388231","ARG_OF_PERICENTER":"65.0650","MEAN_MOTION":"15.06394666","TIME_SYSTEM":"UTC","BSTAR":"0.00098449000000","EPOCH":"2022-04-04T19:47:59.971488","OBJECT_ID":"2021-024B","ELEMENT_SET_NO":"999","CLASSIFICATION_TYPE":"U","MEAN_ANOMALY":"295.0509","INCLINATION":"53.0530","TLE_LINE1":"1 47978U 21024B   22094.82499967  .00014411  00000-0  98449-3 0  9993","COUNTRY_CODE":"US","GP_ID":"200434681","TLE_LINE2":"2 47978  53.0530 297.9716 0001644  65.0650 295.0509 15.06394666 57762"},{"MEAN_MOTION_DDOT":"0.0000000000000","SITE":"AFETR","EPHEMERIS_TYPE":"0","LAUNCH_DATE":"2021-03-24","RA_OF_ASC_NODE":"232.5538","ECCENTRICITY":"0.00017510","REV_AT_EPOCH":"5869","REF_FRAME":"TEME","PERIOD":"95.592","MEAN_MOTION_DOT":"0.00016455","DECAY_DATE":null,"SEMIMAJOR_AXIS":"6925.331","RCS_SIZE":"LARGE","CENTER_NAME":"EARTH","OBJECT_TYPE":"PAYLOAD","PERIAPSIS":"545.983","OBJECT_NAME":"STARLINK-2325","APOAPSIS":"548.408","MEAN_ELEMENT_THEORY":"SGP4","BSTAR":"0.00112080000000","OBJECT_ID":"2021-024C","EPOCH":"2022-04-04T22:00:00.999936","CLASSIFICATION_TYPE":"U","ELEMENT_SET_NO":"999","INCLINATION":"53.0531","MEAN_ANOMALY":"65.0207","TLE_LINE2":"2 47979  53.0531 232.5538 0001751  55.2010  65.0207 15.06405873 58697","TLE_LINE1":"1 47979U 21024C   22094.91667824  .00016455  00000-0  11208-2 0  9990","COUNTRY_CODE":"US","GP_ID":"200434697","NORAD_CAT_ID":"47979","FILE":"3388244","ARG_OF_PERICENTER":"55.2010","MEAN_MOTION":"15.06405873","TIME_SYSTEM":"UTC"},{"NORAD_CAT_ID":"47980","FILE":"3387897","ARG_OF_PERICENTER":"50.8718","MEAN_MOTION":"15.06397102","TIME_SYSTEM":"UTC","BSTAR":"-0.00045688000000","EPOCH":"2022-04-04T14:00:01.000224","OBJECT_ID":"2021-024D","ELEMENT_SET_NO":"999","CLASSIFICATION_TYPE":"U","MEAN_ANOMALY":"10.6091","INCLINATION":"53.0559","GP_ID":"200426061","TLE_LINE1":"1 47980U 21024D   22094.58334491 -.00007080  00000-0 -45688-3 0  9992","COUNTRY_CODE":"US","TLE_LINE2":"2 47980  53.0559 214.0653 0001965  50.8718  10.6091 15.06397102  3619","CENTER_NAME":"EARTH","RCS_SIZE":"LARGE","OBJECT_TYPE":"PAYLOAD","PERIAPSIS":"545.862","OBJECT_NAME":"STARLINK-2312","APOAPSIS":"548.583","MEAN_ELEMENT_THEORY":"SGP4","MEAN_MOTION_DDOT":"0.0000000000000","SITE":"AFETR","EPHEMERIS_TYPE":"0","LAUNCH_DATE":"2021-03-24","REV_AT_EPOCH":"361","RA_OF_ASC_NODE":"214.0653","ECCENTRICITY":"0.00019650","REF_FRAME":"TEME","MEAN_MOTION_DOT":"-0.00007080","PERIOD":"95.592","SEMIMAJOR_AXIS":"6925.357","DECAY_DATE":null},{"PERIAPSIS":"546.222","OBJECT_NAME":"STARLINK-2303","CENTER_NAME":"EARTH","RCS_SIZE":"LARGE","OBJECT_TYPE":"PAYLOAD","MEAN_ELEMENT_THEORY":"SGP4","APOAPSIS":"548.275","LAUNCH_DATE":"2021-03-24","REV_AT_EPOCH":"5821","RA_OF_ASC_NODE":"300.4095","ECCENTRICITY":"0.00014820","MEAN_MOTION_DDOT":"0.0000000000000","EPHEMERIS_TYPE":"0","SITE":"AFETR","MEAN_MOTION_DOT":"0.00002350","PERIOD":"95.593","DECAY_DATE":null,"SEMIMAJOR_AXIS":"6925.384","REF_FRAME":"TEME","ARG_OF_PERICENTER":"57.7082","NORAD_CAT_ID":"47981","FILE":"3387897","TIME_SYSTEM":"UTC","MEAN_MOTION":"15.06388525","CLASSIFICATION_TYPE":"U","ELEMENT_SET_NO":"999","MEAN_ANOMALY":"302.4050","INCLINATION":"53.0529","BSTAR":"0.00017669000000","EPOCH":"2022-04-04T06:47:45.340224","OBJECT_ID":"2021-024E","GP_ID":"200424829","TLE_LINE1":"1 47981U 21024E   22094.28316366  .00002350  00000-0  17669-3 0  9992","COUNTRY_CODE":"US","TLE_LINE2":"2 47981  53.0529 300.4095 0001482  57.7082 302.4050 15.06388525 58213"}];
